     3.04           N: GNSS NAV DATA    M: Mixed            RINEX VERSION / TYPE
CONVBIN demo5 b34g                      20221018 170228 UTC PGM / RUN BY / DATE 
log: /home/dominic/Bureau/ubx/2022.10.07_221432.ubx         COMMENT             
format: u-blox UBX                                          COMMENT             
format: u-blox UBX                                          COMMENT             
log: /home/dominic/Bureau/ubx/2022.10.07_221432.ubx         COMMENT             
                                                            END OF HEADER       
R12 2022 10 07 22 15 00  .218190252781D-04  .909494701773D-12  .512070000000D+06
      .810024072266D+04  .113073348999D+01  .000000000000D+00  .000000000000D+00
     -.876810058594D+04  .286726665497D+01  .931322574615D-09 -.100000000000D+01
      .225698911133D+05  .710473060608D+00 -.279396772385D-08  .000000000000D+00
R02 2022 10 07 22 15 00 -.229002907872D-04  .000000000000D+00  .512070000000D+06
      .997019238281D+04  .824081420898D+00  .931322574615D-09  .000000000000D+00
     -.207070937500D+05 -.127054977417D+01  .279396772385D-08 -.400000000000D+01
      .110277270508D+05 -.314710807800D+01 -.931322574615D-09  .000000000000D+00
R03 2022 10 07 22 15 00  .650938600302D-04  .909494701773D-12  .512070000000D+06
     -.356175097656D+04  .182941722870D+01 -.186264514923D-08  .000000000000D+00
     -.123524399414D+05 -.239303302765D+01  .931322574615D-09  .500000000000D+01
      .220573579102D+05 -.105208683014D+01 -.186264514923D-08  .000000000000D+00
R13 2022 10 07 22 15 00 -.275913625956D-04  .000000000000D+00  .512070000000D+06
     -.177774267578D+04  .618728637695D+00 -.186264514923D-08  .000000000000D+00
     -.213807749023D+05  .178924751282D+01  .186264514923D-08 -.200000000000D+01
      .137868417969D+05  .285237789154D+01 -.186264514923D-08  .000000000000D+00
R04 2022 10 07 22 15 00  .160367228091D-03  .181898940355D-11  .512070000000D+06
     -.146102519531D+05  .183641242981D+01 -.372529029846D-08  .000000000000D+00
      .275360644531D+04 -.216393947601D+01  .000000000000D+00  .600000000000D+01
      .207525654297D+05  .157999515533D+01 -.186264514923D-08  .000000000000D+00
R20 2022 10 07 22 15 00 -.797901302576D-04  .000000000000D+00  .512070000000D+06
     -.407073242188D+04 -.313448143005D+01 -.931322574615D-09  .000000000000D+00
      .970760791016D+04 -.571885108948D+00 -.931322574615D-09  .200000000000D+01
      .232451425781D+05 -.307437896729D+00 -.186264514923D-08  .000000000000D+00
R11 2022 10 07 22 15 00  .252099707723D-04 -.909494701773D-12  .512070000000D+06
      .139436831055D+05  .106755542755D+01  .279396772385D-08  .000000000000D+00
      .106209257812D+05  .230265045166D+01  .000000000000D+00  .000000000000D+00
      .185387373047D+05 -.212489128113D+01 -.279396772385D-08  .000000000000D+00
R21 2022 10 07 22 15 00 -.339756719768D-03 -.272848410532D-11  .512070000000D+06
      .169005937500D+05 -.217442512512D+01  .372529029846D-08  .000000000000D+00
      .100636694336D+05 -.517489433289D+00  .000000000000D+00  .400000000000D+01
      .162639326172D+05  .257656002045D+01 -.279396772385D-08  .000000000000D+00
E07 2022 10 07 21 50 00 -.711436732672D-03 -.306954461848D-11  .000000000000D+00
      .830000000000D+02 -.163562500000D+03  .321977697378D-08  .104789577615D+01
     -.770762562752D-05  .141105498187D-03  .831298530102D-05  .544063116264D+04
      .510600000000D+06 -.745058059692D-08  .223148966529D+01 -.987201929092D-07
      .957182168811D+00  .159031250000D+03  .353124651916D+00 -.574202489267D-08
     -.482877256633D-09  .513000000000D+03  .223000000000D+04  .000000000000D+00
      .312000000000D+01  .000000000000D+00  .582076609135D-08  .628642737865D-08
      .512095000000D+06  .000000000000D+00
E03 2022 10 07 22 00 00 -.607471971307D-03 -.379429820896D-11  .000000000000D+00
      .840000000000D+02 -.185000000000D+03  .331799535068D-08  .209407582296D+01
     -.848248600960D-05  .310110044666D-03  .968202948570D-05  .544063239861D+04
      .511200000000D+06  .558793544769D-07  .223144058146D+01  .745058059692D-08
      .957138306138D+00  .131656250000D+03  .951909714038D+00 -.580952770443D-08
     -.515021452711D-09  .513000000000D+03  .223000000000D+04  .000000000000D+00
      .312000000000D+01  .000000000000D+00  .302679836750D-08  .349245965481D-08
      .512095000000D+06  .000000000000D+00
E18 2022 10 07 22 00 00 -.887896865606D-03  .442668124379D-10  .000000000000D+00
      .840000000000D+02  .181875000000D+02  .541308261948D-08 -.130503831876D+01
     -.728294253349D-06  .161685731029D+00  .158585608006D-04  .528938951683D+04
      .511200000000D+06 -.397115945816D-05 -.746964378156D+00 -.407919287682D-06
      .876140517078D+00  .588750000000D+02  .223594869665D+01 -.941646366208D-08
     -.193936649668D-09  .513000000000D+03  .223000000000D+04  .000000000000D+00
      .312000000000D+01  .130000000000D+03 -.162981450558D-08 -.209547579288D-08
      .512095000000D+06  .000000000000D+00
E08 2022 10 07 22 00 00 -.611581548583D-03 -.643751718599D-11  .000000000000D+00
      .840000000000D+02 -.181625000000D+03  .313691637944D-08  .145552508524D+01
     -.832602381706D-05  .241928268224D-03  .873580574989D-05  .544062241173D+04
      .511200000000D+06  .633299350739D-07  .222877556019D+01 -.186264514923D-08
      .963067834955D+00  .153312500000D+03  .816620451543D+00 -.577809782382D-08
     -.531807866218D-09  .513000000000D+03  .223000000000D+04  .000000000000D+00
      .312000000000D+01  .000000000000D+00 -.372529029846D-08 -.442378222942D-08
      .512095000000D+06  .000000000000D+00
E02 2022 10 07 22 00 00  .329358503222D-03  .235900188272D-11  .000000000000D+00
      .840000000000D+02  .505937500000D+02  .376479967616D-08  .141375115812D+01
      .244192779064D-05  .340556842275D-03  .197999179363D-05  .544059912109D+04
      .511200000000D+06  .763684511185D-07 -.195189346603D+01  .186264514923D-08
      .971834409581D+00  .300687500000D+03 -.414151180750D+00 -.613704134669D-08
      .186793494985D-09  .513000000000D+03  .223000000000D+04  .000000000000D+00
      .312000000000D+01  .000000000000D+00 -.116415321827D-08 -.186264514923D-08
      .512095000000D+06  .000000000000D+00
E30 2022 10 07 21 10 00 -.897921971045D-03 -.306812353301D-10  .000000000000D+00
      .790000000000D+02  .495625000000D+02  .371694053978D-08 -.339222084979D+00
      .221841037273D-05  .276918872260D-03  .193715095520D-05  .544061365891D+04
      .508200000000D+06 -.670552253723D-07 -.195091426035D+01 -.186264514923D-08
      .969284992485D+00  .299875000000D+03  .172541031872D+00 -.607489590094D-08
      .118219210019D-09  .513000000000D+03  .223000000000D+04  .000000000000D+00
      .312000000000D+01  .000000000000D+00  .232830643654D-08  .232830643654D-08
      .512095000000D+06  .000000000000D+00
E25 2022 10 07 21 50 00 -.589607458096D-03 -.952127265919D-12  .000000000000D+00
      .830000000000D+02  .495000000000D+02  .372265506353D-08  .293206482045D+01
      .232830643654D-05  .355276861228D-03  .202655792236D-05  .544060558319D+04
      .510600000000D+06 -.279396772385D-07 -.195484953778D+01  .558793544769D-07
      .971420337933D+00  .300187500000D+03 -.125874470039D+01 -.608096758242D-08
      .211080220910D-09  .513000000000D+03  .223000000000D+04  .000000000000D+00
      .312000000000D+01  .000000000000D+00  .419095158577D-08  .465661287308D-08
      .512095000000D+06  .000000000000D+00
C23 2022 10 07 22 00 00 -.447319005616D-03 -.183018933342D-09  .000000000000D+00
      .100000000000D+01  .991406250000D+02  .445232831449D-08  .224956117717D+01
      .502541661263D-05  .286146067083D-03  .755814835429D-05  .528261925697D+04
      .511200000000D+06  .104308128357D-06 -.248642349418D+01 -.786967575550D-07
      .947014526819D+00  .198140625000D+03 -.109217169109D+01 -.723315843294D-08
      .572166690182D-09  .000000000000D+00  .874000000000D+03  .000000000000D+00
      .200000000000D+01  .000000000000D+00  .224000000000D-07  .224000000000D-07
      .512070000000D+06  .100000000000D+01
C32 2022 10 07 22 00 00 -.769260223024D-03  .166808789004D-10  .000000000000D+00
      .100000000000D+01 -.751875000000D+02  .407302680077D-08 -.281328584220D+01
     -.372948125005D-05  .196074135602D-03  .233901664615D-05  .528261962318D+04
      .511200000000D+06  .833533704281D-07  .169110448892D+01  .204890966415D-07
      .969000765057D+00  .316468750000D+03 -.105041686530D+01 -.723315843294D-08
     -.258582199558D-09  .000000000000D+00  .874000000000D+03  .000000000000D+00
      .200000000000D+01  .000000000000D+00 -.740000000000D-08 -.740000000000D-08
      .512070000000D+06  .100000000000D+01
C37 2022 10 07 22 00 00 -.435834517702D-03 -.121283427745D-09  .000000000000D+00
      .100000000000D+01  .907656250000D+02  .436339603867D-08  .118459052695D+01
      .452436506748D-05  .716869952157D-03  .751158222556D-05  .528261327171D+04
      .511200000000D+06 -.409781932831D-07 -.248844354120D+01 -.637955963612D-07
      .948458748805D+00  .200562500000D+03 -.791645290267D+00 -.711279627652D-08
      .514307137242D-09  .000000000000D+00  .874000000000D+03  .000000000000D+00
      .200000000000D+01  .000000000000D+00 -.165000000000D-07 -.165000000000D-07
      .512070000000D+06  .100000000000D+01
C25 2022 10 07 22 00 00  .644347164780D-05  .566302560401D-11  .000000000000D+00
      .100000000000D+01  .995937500000D+02  .443268463911D-08  .155934086193D+01
      .498490408063D-05  .469160848297D-03  .779563561082D-05  .528262290192D+04
      .511200000000D+06  .381842255592D-07 -.251118924605D+01  .577419996262D-07
      .948435052458D+00  .195093750000D+03  .355803902992D+00 -.718887087390D-08
      .655027284516D-09  .000000000000D+00  .874000000000D+03  .000000000000D+00
      .200000000000D+01  .000000000000D+00  .110000000000D-08  .110000000000D-08
      .512070000000D+06  .100000000000D+01
